#aV2015 11 21  0  0  0.00000000     288 DD+AD WGS84 FIT  NGA
## 1871 518400.00000000   300.00000000 57347 0.0000000000000
+   30     1  2  3  5  6  7  8  9 11 12 13 14 15 16 17 18 19
+         20 21 22 23 24 25 26 27 28 29 30 31 32  0  0  0  0
+          0  0  0  0  0  0  0  0  0  0  0  0  0  0  0  0  0
+          0  0  0  0  0  0  0  0  0  0  0  0  0  0  0  0  0
+          0  0  0  0  0  0  0  0  0  0  0  0  0  0  0  0  0
++         2  2  2  2  2  2  2  2  2  2  2  2  2  2  2  2  2
++         2  2  2  2  2  2  2  2  2  2  2  2  2  0  0  0  0
++         0  0  0  0  0  0  0  0  0  0  0  0  0  0  0  0  0
++         0  0  0  0  0  0  0  0  0  0  0  0  0  0  0  0  0
++         0  0  0  0  0  0  0  0  0  0  0  0  0  0  0  0  0
%c cc cc ccc ccc cccc cccc cccc cccc ccccc ccccc ccccc ccccc
%c cc cc ccc ccc cccc cccc cccc cccc ccccc ccccc ccccc ccccc
%f  0.0000000  0.000000000  0.00000000000  0.000000000000000
%f  0.0000000  0.000000000  0.00000000000  0.000000000000000
%i    0    0    0    0      0      0      0      0         0
%i    0    0    0    0      0      0      0      0         0
/*      NGA, ST. LOUIS,MO.                                  
/*   EPHEMERIS COMPUTED FROM 2 DAYS OF DATA                 
/*   EPOCHA v2.4 SMOOTHER                                   
/*   G1762 IERS2010 SATAF SATAPC                            
*  2015 11 21  2 30  0.00000000
P  1 -22381.974976 -14038.349824  -3726.660797      4.906193                    
V  1   5259.351365   -215.876443 -31201.739087      0.008206                    
P  2   3655.689840  17624.199327  20053.103384    596.281938                    
V  2 -22833.497029  -9084.393223  11960.241777      0.009016                    
P  3 -12776.537497 -16316.663172  16601.292227     11.592681                    
V  3    438.905715 -21169.190846 -20490.179726     -0.038631                    
P  5   2090.135931  26370.665261    -75.316869   -172.687605                    
V  5  -3440.351946    282.384371  31555.852148      0.037733                    
P  6 -10380.145317  11601.744789  21515.830367     98.723595                    
V  6 -24364.324059 -12369.502450  -5094.503954      0.066534                    
P  7 -24067.499985  -4182.135741 -10762.212110    479.774669                    
V  7 -11246.267529  -8099.573585  27580.467318     -0.010931                    
P  8  -7912.731559 -12965.027279 -21737.969708    -13.267578                    
V  8  22973.551917 -15513.002977    881.583353     -0.014442                    
P  9 -23099.250741   5609.842204  11849.461944     13.773498                    
V  9  11068.188077 -10520.819193  26518.710406      0.063408                    
P 11 -20733.094902 -11888.283415 -12210.680291   -617.337252                    
V 11  15125.953089  -2289.473313 -24503.464889     -0.021480                    
P 12  10342.764167  19178.320278  15229.897919    347.081297                    
V 12   -906.729144  19406.646424 -23451.265474      0.030977                    
P 13  -2424.219091  16958.829478 -20457.948033   -165.777957                    
V 13 -23105.221222  11083.846726  11907.572026     -0.027750                    
P 14  21599.542225 -14979.379354   3449.029964     20.381064                    
V 14   4907.768940    369.552765 -31559.125240     -0.024207                    
P 15  11088.883173  11484.955785 -21351.981561   -283.201431                    
V 15 -21470.224244  16295.658412  -2056.634313     -0.019605                    
P 16    132.120892 -26351.627201    183.538502    -64.612469                    
V 16   2179.486271    334.218172  32657.973889      0.035838                    
P 17 -21210.413664  15511.018809   3277.872166   -194.539236                    
V 17  -4548.436268   -170.145056 -31840.181580     -0.009518                    
P 18  15391.053375  -3744.920428 -20794.311519    454.953351                    
V 18   3110.165388  27589.638581  -2880.157820      0.036792                    
P 19 -24224.209030   4992.120685 -10507.065327   -522.967206                    
V 19  10430.568473  -7691.959634 -27887.697983     -0.003945                    
P 20  13379.331469  18196.608761 -14080.117632    372.539529                    
V 20   -323.060184  17974.162158  23255.613705      0.028688                    
P 21  23127.089260    451.295976 -12607.291726   -494.753072                    
V 21  14298.678504   9830.729168  24852.454008     -0.023861                    
P 22  10482.179117 -18118.968558 -16009.991953    412.442619                    
V 22   4722.705791  20606.470078 -20113.814185      0.033391                    
P 23 -17222.262092  -5546.924079  19749.955203   -145.554442                    
V 23  19853.112727 -14612.647963  12890.405789     -0.020631                    
P 24  21102.091702  14941.084492  -6497.838131     -8.240480                    
V 24  -8604.651224   -891.234922 -29986.359333     -0.004817                    
P 25  14732.792748   5691.752457  21283.332094    -70.647776                    
V 25   1319.753352  27145.205917  -7967.936863     -0.058442                    
P 26   5552.196053 -23796.593139  10390.883937   -131.186686                    
V 26   3449.301997  12979.380847  27908.919954     -0.158708                    
P 27   3707.532191 -18211.991906 -18948.901736     37.648623                    
V 27  20644.866594 -12371.076296  16074.306148      0.032135                    
P 28 -11864.626591  14799.711019 -17928.626873    482.876168                    
V 28  -1175.351414 -24034.139561 -18493.040664      0.025353                    
P 29  22377.871466  -2194.761332  14123.692268    645.251432                    
V 29 -14441.315042  10722.620420  24606.280830      0.015029                    
P 30 -18339.997676   4648.163069 -18672.041096     59.912046                    
V 30 -19738.144295 -13211.832491  16017.328860      0.055501                    
P 31   9636.958080 -11775.923719  21920.791789    294.453418                    
V 31  24203.675301  12977.644730  -3348.373401     -0.015374                    
P 32  -5502.038522 -24978.076356   8055.547232     23.419491                    
V 32   2730.824284 -10158.494529 -28857.253128      0.119048                    
EOF
